     2.10           G: GLONASS NAV DATA                     RINEX VERSION / TYPE
teqc  2015Jun23                         20220310 01:25:43UTCPGM / RUN BY / DATE
Linux 2.4.21-27.ELsmp|Opteron|gcc -static|Linux x86_64|=+   COMMENT
  2022     2    14   -4.656612873077D-10                    CORR TO SYSTEM TIME
                                                            END OF HEADER
10 22  2 15  2 45  0.0-7.979758083820D-05-0.000000000000D+00 9.000000000000D+03
    6.118979003906D+03-7.353668212891D-01-1.862645149231D-09 0.000000000000D+00
    2.160505126953D+04-1.482230186462D+00-0.000000000000D+00-7.000000000000D+00
    1.201245458984D+04 3.043844223022D+00-1.862645149231D-09 0.000000000000D+00
 9 22  2 15  2 45  0.0 3.954302519560D-05 1.818989403546D-12 9.000000000000D+03
   -5.329078125000D+03-1.499654769897D+00-0.000000000000D+00 0.000000000000D+00
    1.212069628906D+04-2.577205657959D+00-0.000000000000D+00-2.000000000000D+00
    2.182787646484D+04 1.059027671814D+00-2.793967723846D-09 0.000000000000D+00
 5 22  2 15  2 45  0.0 8.772686123848D-05 9.094947017729D-13 9.000000000000D+03
   -1.451850000000D+04 1.477562904358D+00-1.862645149231D-09 0.000000000000D+00
    6.177167480469D+03-2.317008018494D+00 3.725290298462D-09 1.000000000000D+00
   -2.002226171875D+04-1.787444114685D+00 0.000000000000D+00 0.000000000000D+00
 6 22  2 15  2 45  0.0-3.269594162703D-05-1.818989403546D-12 9.000000000000D+03
   -1.367000683594D+04 3.676710128784D-01-2.793967723846D-09 0.000000000000D+00
    2.120822265625D+04-3.694448471069D-01 2.793967723846D-09-4.000000000000D+00
   -3.664929687500D+03-3.519212722778D+00-1.862645149231D-09 0.000000000000D+00
 7 22  2 15  2 45  0.0 3.165658563375D-05 0.000000000000D+00 9.000000000000D+03
   -5.196242187500D+03-7.875471115112D-01-1.862645149231D-09 0.000000000000D+00
    2.123641748047D+04 1.617410659790D+00 9.313225746155D-10 5.000000000000D+00
    1.313855029297D+04-2.938791275024D+00-2.793967723846D-09 0.000000000000D+00
21 22  2 15  2 45  0.0-2.781227231026D-04-2.728484105319D-12 1.020000000000D+04
    1.929023437500D+03-3.179690361023D+00-2.793967723846D-09 0.000000000000D+00
    1.045230371094D+04-5.982303619385D-02 1.862645149231D-09 4.000000000000D+00
   -2.318260302734D+04-2.932615280151D-01 9.313225746155D-10 0.000000000000D+00
 8 22  2 15  2 45  0.0-6.355438381433D-05 0.000000000000D+00 1.056000000000D+04
    6.241540527344D+03-1.512454032898D+00 0.000000000000D+00 0.000000000000D+00
    1.042571093750D+04 2.664165496826D+00-1.862645149231D-09 6.000000000000D+00
    2.248097753906D+04-8.200721740723D-01-1.862645149231D-09 0.000000000000D+00
10 22  2 15  3 15  0.0-7.979851216078D-05-0.000000000000D+00 1.080000000000D+04
    4.237513183594D+03-1.362357139587D+00-9.313225746155D-10 0.000000000000D+00
    1.853009716797D+04-1.889382362366D+00-0.000000000000D+00-7.000000000000D+00
    1.695361816406D+04 2.410585403442D+00-2.793967723846D-09 0.000000000000D+00
 8 22  2 15  3 15  0.0-6.355624645948D-05 0.000000000000D+00 1.080000000000D+04
    3.983877929688D+03-9.878463745117D-01-9.313225746155D-10 0.000000000000D+00
    1.517661132812D+04 2.564955711365D+00-0.000000000000D+00 6.000000000000D+00
    2.015933984375D+04-1.743030548096D+00-2.793967723846D-09 0.000000000000D+00
 6 22  2 15  3 15  0.0-3.269966691732D-05-1.818989403546D-12 1.080000000000D+04
   -1.275375390625D+04 6.088018417358D-01-2.793967723846D-09 0.000000000000D+00
    1.979943652344D+04-1.198462486267D+00 3.725290298462D-09-4.000000000000D+00
   -9.775689453125D+03-3.226393699646D+00-9.313225746155D-10 0.000000000000D+00
 7 22  2 15  3 15  0.0 3.165658563375D-05 0.000000000000D+00 1.080000000000D+04
   -6.107312011719D+03-2.470397949219D-01-2.793967723846D-09 0.000000000000D+00
    2.361801171875D+04 9.914350509644D-01 1.862645149231D-09 5.000000000000D+00
    7.408861816406D+03-3.386262893677D+00-2.793967723846D-09 0.000000000000D+00
21 22  2 15  3 15  0.0-2.781283110380D-04-2.728484105319D-12 1.080000000000D+04
   -3.771062011719D+03-3.100780487061D+00-1.862645149231D-09 0.000000000000D+00
    1.077812695312D+04 4.165792465210D-01 3.725290298462D-09 4.000000000000D+00
   -2.280721142578D+04 7.075977325439D-01 0.000000000000D+00 0.000000000000D+00
21 22  2 15  3 45  0.0-2.781338989735D-04-2.728484105319D-12 1.260000000000D+04
   -9.051430664062D+03-2.719491958618D+00-1.862645149231D-09 0.000000000000D+00
    1.190017773438D+04 8.071269989014D-01 3.725290298462D-09 4.000000000000D+00
   -2.066835302734D+04 1.653431892395D+00-0.000000000000D+00 0.000000000000D+00
 8 22  2 15  3 45  0.0-6.355624645948D-05 0.000000000000D+00 1.260000000000D+04
    2.681852539062D+03-4.688243865967D-01-1.862645149231D-09 0.000000000000D+00
    1.948269824219D+04 2.172535896301D+00 9.313225746155D-10 6.000000000000D+00
    1.628610595703D+04-2.532919883728D+00-2.793967723846D-09 0.000000000000D+00
 6 22  2 15  3 45  0.0-3.270339220762D-05-1.818989403546D-12 1.260000000000D+04
   -1.162952734375D+04 5.994472503662D-01-1.862645149231D-09 0.000000000000D+00
    1.691936328125D+04-1.984930992126D+00 4.656612873077D-09-4.000000000000D+00
   -1.512984130859D+04-2.684048652649D+00-9.313225746155D-10 0.000000000000D+00
 7 22  2 15  3 45  0.0 3.165658563375D-05 0.000000000000D+00 1.260000000000D+04
   -6.190581054688D+03 1.196088790894D-01-1.862645149231D-09 0.000000000000D+00
    2.469610595703D+04 1.840419769287D-01 3.725290298462D-09 5.000000000000D+00
    1.105493164062D+03-3.571935653687D+00-1.862645149231D-09 0.000000000000D+00
10 22  2 15  3 45  0.0-7.980037480593D-05-0.000000000000D+00 1.260000000000D+04
    1.222008300781D+03-1.976742744446D+00-9.313225746155D-10 0.000000000000D+00
    1.497203125000D+04-2.016838073730D+00-0.000000000000D+00-7.000000000000D+00
    2.057831054688D+04 1.590728759766D+00-2.793967723846D-09 0.000000000000D+00
21 22  2 15  4 15  0.0-2.781394869089D-04-2.728484105319D-12 1.440000000000D+04
   -1.341420312500D+04-2.094373703003D+00-0.000000000000D+00 0.000000000000D+00
    1.357417382812D+04 1.016051292419D+00 4.656612873077D-09 4.000000000000D+00
   -1.693189160156D+04 2.471208572388D+00-0.000000000000D+00 0.000000000000D+00
 8 22  2 15  4 15  0.0-6.355531513691D-05-0.000000000000D+00 1.440000000000D+04
    2.230161621094D+03-5.897426605225D-02-1.862645149231D-09 0.000000000000D+00
    2.284383496094D+04 1.524971008301D+00 1.862645149231D-09 6.000000000000D+00
    1.115760839844D+04-3.128663063049D+00-2.793967723846D-09 0.000000000000D+00
 6 22  2 15  4 15  0.0-3.270711749792D-05-1.818989403546D-12 1.440000000000D+04
   -1.073102832031D+04 3.659772872925D-01-9.313225746155D-10 0.000000000000D+00
    1.274585009766D+04-2.618528366089D+00 4.656612873077D-09-4.000000000000D+00
   -1.931357080078D+04-1.934418678284D+00 0.000000000000D+00 0.000000000000D+00
 7 22  2 15  4 15  0.0 3.165658563375D-05-0.000000000000D+00 1.440000000000D+04
   -5.815927246094D+03 2.557048797607D-01-1.862645149231D-09 0.000000000000D+00
    2.423296679688D+04-7.021875381470D-01 4.656612873077D-09 5.000000000000D+00
   -5.283511718750D+03-3.480681419373D+00-1.862645149231D-09 0.000000000000D+00
10 22  2 15  4 15  0.0-7.979292422533D-05-0.000000000000D+00 1.440000000000D+04
   -2.805035156250D+03-2.468799591064D+00-0.000000000000D+00 0.000000000000D+00
    1.143210351562D+04-1.874729156494D+00-0.000000000000D+00-7.000000000000D+00
    2.260659033203D+04 6.484298706055D-01-2.793967723846D-09 0.000000000000D+00
21 22  2 15  4 45  0.0-2.781450748444D-04-2.728484105319D-12 1.620000000000D+04
   -1.650112353516D+04-1.319859504700D+00 0.000000000000D+00 0.000000000000D+00
    1.540938476562D+04 9.787950515747D-01 4.656612873077D-09 4.000000000000D+00
   -1.188698974609D+04 3.097839355469D+00-9.313225746155D-10 0.000000000000D+00
 1 22  2 15  4 45  0.0 7.069669663906D-06 0.000000000000D+00 1.620000000000D+04
    9.157701171875D+03 1.409521102905D-01-9.313225746155D-10 0.000000000000D+00
    1.508495849609D+04 2.519052505493D+00 0.000000000000D+00 1.000000000000D+00
    1.842671630859D+04-2.131397247314D+00-2.793967723846D-09 0.000000000000D+00
 6 22  2 15  4 45  0.0-3.271084278822D-05-1.818989403546D-12 1.620000000000D+04
   -1.040729833984D+04-2.534770965576D-02 0.000000000000D+00 0.000000000000D+00
    7.638312988281D+03-3.010596275330D+00 3.725290298462D-09-4.000000000000D+00
   -2.200406298828D+04-1.035696029663D+00 0.000000000000D+00 0.000000000000D+00
 7 22  2 15  4 45  0.0 3.165658563375D-05-0.000000000000D+00 1.620000000000D+04
   -5.417559082031D+03 1.474809646606D-01-9.313225746155D-10 0.000000000000D+00
    2.219123535156D+04-1.550229072571D+00 4.656612873077D-09 5.000000000000D+00
   -1.126230175781D+04-3.119047164917D+00-9.313225746155D-10 0.000000000000D+00
 8 22  2 15  4 45  0.0-6.355624645948D-05-0.000000000000D+00 1.620000000000D+04
    2.354244140625D+03 1.599254608154D-01-9.313225746155D-10 0.000000000000D+00
    2.486581689453D+04 7.003974914551D-01 3.725290298462D-09 6.000000000000D+00
    5.167733886719D+03-3.483664512634D+00-2.793967723846D-09 0.000000000000D+00
22 22  2 15  4 45  0.0-1.647910103202D-04-1.818989403546D-12 1.788000000000D+04
   -2.015569824219D+03-2.630086898804D+00-9.313225746155D-10 0.000000000000D+00
    1.240590087891D+04 1.532581329346D+00 4.656612873077D-09-3.000000000000D+00
   -2.218578857422D+04 1.105607986450D+00 0.000000000000D+00 0.000000000000D+00
21 22  2 15  5 15  0.0-2.781497314572D-04-2.728484105319D-12 1.800000000000D+04
   -1.814493847656D+04-5.108022689819D-01 9.313225746155D-10 0.000000000000D+00
    1.693596191406D+04 6.733417510986D-01 3.725290298462D-09 4.000000000000D+00
   -5.923706542969D+03 3.485030174255D+00-9.313225746155D-10 0.000000000000D+00
 8 22  2 15  5 15  0.0-6.355624645948D-05-0.000000000000D+00 1.800000000000D+04
    2.662826171875D+03 1.418714523315D-01-9.313225746155D-10 0.000000000000D+00
    2.532250976562D+04-1.950569152832D-01 4.656612873077D-09 6.000000000000D+00
   -1.221725097656D+03-3.569599151611D+00-1.862645149231D-09 0.000000000000D+00
